COSMOS 2251 DEB         
1 35031U 93036AGU 26085.20381499  .00000455  00000+0  15762-3 0  9997
2 35031  74.0366  68.6229 0018124 144.9565 215.2786 14.38417922667712
COSMOS 2251 DEB         
1 35032U 93036AGV 26087.45644799  .00003293  00000+0  67639-3 0  9995
2 35032  73.8517 163.5108 0067135 349.5408  25.9973 14.59659675892163
COSMOS 2251 DEB         
1 35033U 93036AGW 26086.37299720  .00002007  00000+0  50749-3 0  9992
2 35033  74.0289 339.5807 0012662  64.3398 295.9070 14.51578193674453
COSMOS 2251 DEB         
1 35038U 93036AHB 26087.35451463  .00004193  00000+0  16517-2 0  9992
2 35038  74.1063 212.7060 0111875 170.9494 221.0851 14.26066457870743
COSMOS 2251 DEB         
1 35043U 93036AHG 26087.28896469  .00025957  00000+0  29832-2 0  9994
2 35043  73.9486 196.5509 0086786  15.7759 344.6089 14.82985196689806
COSMOS 2251 DEB         
1 35045U 93036AHJ 26087.09238510  .00000957  00000+0  57261-3 0  9993
2 35045  73.7174 226.5974 0180619  92.9384 269.2433 14.00636343861186
COSMOS 2251 DEB         
1 35060U 93036AHP 26085.28019271  .00000990  00000+0  31017-3 0  9998
2 35060  74.0372  52.4912 0016908 120.8059 239.4763 14.41854620887340
COSMOS 2251 DEB         
1 35061U 93036AHQ 26087.44723630  .00003218  00000+0  54992-3 0  9993
2 35061  74.0426 101.4260 0040771 190.4454 169.5875 14.68782856901264
COSMOS 2251 DEB         
1 35062U 93036AHR 26086.89668440  .00004355  00000+0  17542-2 0  9991
2 35062  74.0774 264.5148 0126016 237.2578 121.6374 14.24066234869950
COSMOS 2251 DEB         
1 35065U 93036AHU 26086.50456414  .00001288  00000+0  36744-3 0  9996
2 35065  74.0221 358.7026 0018513 103.7345 256.5875 14.46107911698655
COSMOS 2251 DEB         
1 35071U 93036AJA 26087.88603088  .00011297  00000+0  73582-3 0  9998
2 35071  73.9320 314.7011 0067254 185.8592 174.1819 15.06110653691332
COSMOS 2251 DEB         
1 35073U 93036AJC 26087.78090699  .00057294  00000+0  33163-2 0  9994
2 35073  73.9912 112.5294 0015040 239.2898 120.6813 15.11855389690750
COSMOS 2251 DEB         
1 35284U 93036AJN 26087.70428460  .00000480  00000+0  16566-3 0  9995
2 35284  74.0476  69.2971 0015469 127.7618  53.9489 14.38442648670491
COSMOS 2251 DEB         
1 35287U 93036AJR 26087.74493223  .00000342  00000+0  12548-3 0  9994
2 35287  74.0280  81.3309 0017587 160.9767  20.8944 14.36471222884140
COSMOS 2251 DEB         
1 35288U 93036AJS 26087.51001858  .00005319  00000+0  94606-3 0  9993
2 35288  73.9500 170.2611 0037132  12.5866 347.6221 14.66922923894284
COSMOS 2251 DEB         
1 35290U 93036AJU 26087.59084090  .00018233  00000+0  21772-2 0  9995
2 35290  74.0033 209.7641 0006318 301.1186  58.9372 14.84189122895269
